SAUDISAT 2              
1 28371U 04025F   26182.45367204  .00000288  00000+0  75504-4 0  9994
2 28371  98.5510 182.8044 0023489 252.0930 107.7706 14.56692065167821
COSMOS 2407             
1 28380U 04028A   26182.41023344  .00000064  00000+0  49783-4 0  9999
2 28380  82.9598  64.2997 0038394 210.9480 323.0306 13.76335730101830
COSMOS 2414             
1 28521U 05002A   26182.30612389  .00000051  00000+0  30024-4 0  9994
2 28521  82.9489  32.9648 0038771 289.9380  69.7608 13.87927287 85774
INMARSAT 4-F1           
1 28628U 05009A   26182.58949528  .00000040  00000+0  00000+0 0  9991
2 28628   5.1861  42.7721 0002974  59.1626 208.0374  1.00271708 77816
SJ-7                    
1 28737U 05024A   26182.36057678  .00010600  00000+0  46920-3 0  9999
2 28737  97.7271 212.8463 0014810 349.0702  11.0209 15.21756200150184
CUBESAT XI-V            
1 28895U 05043F   26181.38022833  .00001474  00000+0  23930-3 0  9996
2 28895  98.2997 337.2799 0014555 159.1785 201.0018 14.72666866103697
HINODE (SOLAR-B)        
1 29479U 06041A   26182.49298511  .00000761  00000+0  13910-3 0  9990
2 29479  98.0543 198.4345 0016144 240.2562 119.7037 14.68642525 56971
SHIJIAN-6 02B (SJ-6 02B)
1 29506U 06046B   26182.60863649  .00001280  00000+0  10370-3 0  9993
2 29506  97.7150 211.5782 0015051  19.2877 340.8914 15.01411517 72908
DMSP 5D-3 F17 (USA 191) 
1 29522U 06050A   26182.59479076  .00000010  00000+0  27372-4 0  9992
2 29522  98.7380 188.8701 0010547  21.3205 338.8406 14.14994806 14463
LAPAN-TUBSAT            
1 29709U 07001A   26182.59729383 -.00000041  00000+0  19254-5 0  9991
2 29709  98.1338 182.1465 0012971 133.7974 226.4315 14.85962250 53296
HAIYANG-1B              
1 31113U 07010A   26182.47843409  .00000095  00000+0  51869-4 0  9991
2 31113  98.3502 163.7697 0013958 154.0785 206.1100 14.31030446  2685
COSMO-SKYMED 2          
1 32376U 07059A   26182.60829472  .00000421  00000+0  59474-4 0  9998
2 32376  97.8889   5.9971 0001333  89.8591 270.2775 14.82157239  4144
CARTOSAT-2A             
1 32783U 08021A   26182.58980687  .00000927  00000+0  13133-3 0  9995
2 32783  97.7626 230.8067 0013279  67.0949 293.1663 14.79261149980938
CUTE-1.7+APD II (CO-65) 
1 32785U 08021C   26182.63323903  .00006548  00000+0  41134-3 0  9992
2 32785  97.8279 164.3537 0008246 351.3576   8.7509 15.09589272987379
SEEDS II (CO-66)        
1 32791U 08021J   26182.49590807  .00021762  00000+0  67899-3 0  9993
2 32791  97.7518 181.0814 0001306 190.4389 169.6825 15.33239854989486
YUBILEINY (RS30)        
1 32953U 08025A   26182.58451263 -.00000020  00000+0 -21249-3 0  9994
2 32953  82.5042 346.4825 0018502 280.5899  79.3096 12.43180063821489
FENGYUN 3A              
1 32958U 08026A   26182.42596164  .00000075  00000+0  56164-4 0  9996
2 32958  98.6885 122.9929 0009882  87.0903 273.1404 14.19574022937422
HUANJING 1A (HJ-1A)     
1 33320U 08041A   26182.59567581  .00001610  00000+0  19880-3 0  9995
2 33320  97.6683 167.8773 0020706  90.6880 269.6708 14.84021135960548
HUANJING 1B (HJ-1B)     
1 33321U 08041B   26182.63879178  .00000322  00000+0  45136-4 0  9992
2 33321  97.6519 171.0465 0037302 134.0426 226.3872 14.83339497960556
SHIJIAN-6 03A (SJ-6 03A)
1 33408U 08053A   26182.62401039  .00008530  00000+0  43083-3 0  9994
2 33408  97.8399 216.4474 0010298 330.2124  29.8521 15.17307458965152
SHIJIAN-6 03B (SJ-6 03B)
1 33409U 08053B   26182.60040337  .00002140  00000+0  15758-3 0  9992
2 33409  97.8564 202.7297 0019302 356.4192   3.6892 15.04348923964910
